[{"OBJECT_NAME":"STARLINK-32925","OBJECT_ID":"2025-037Q","EPOCH":"2026-03-09T22:33:32.029920","MEAN_MOTION":14.98349057,"ECCENTRICITY":0.00027736,"INCLINATION":70.0031,"RA_OF_ASC_NODE":353.6578,"ARG_OF_PERICENTER":277.0529,"MEAN_ANOMALY":83.0315,"EPHEMERIS_TYPE":0,"CLASSIFICATION_TYPE":"U","NORAD_CAT_ID":63091,"ELEMENT_SET_NO":999,"REV_AT_EPOCH":5858,"BSTAR":0.0010114235,"MEAN_MOTION_DOT":0.00012002,"MEAN_MOTION_DDOT":0},{"OBJECT_NAME":"TITAN 3C TRANSTAGE DEB","OBJECT_ID":"1965-082MY","EPOCH":"2026-03-09T02:07:30.980928","MEAN_MOTION":14.9794194,"ECCENTRICITY":0.0005374,"INCLINATION":32.3706,"RA_OF_ASC_NODE":83.5066,"ARG_OF_PERICENTER":10.5158,"MEAN_ANOMALY":349.5614,"EPHEMERIS_TYPE":0,"CLASSIFICATION_TYPE":"U","NORAD_CAT_ID":3386,"ELEMENT_SET_NO":999,"REV_AT_EPOCH":23080,"BSTAR":0.0004514074,"MEAN_MOTION_DOT":5.483e-5,"MEAN_MOTION_DDOT":0}]
